OBJECT_NAME,OBJECT_ID,EPOCH,MEAN_MOTION,ECCENTRICITY,INCLINATION,RA_OF_ASC_NODE,ARG_OF_PERICENTER,MEAN_ANOMALY,EPHEMERIS_TYPE,CLASSIFICATION_TYPE,NORAD_CAT_ID,ELEMENT_SET_NO,REV_AT_EPOCH,BSTAR,MEAN_MOTION_DOT,MEAN_MOTION_DDOT
STARLINK-11426 [DTC],2024-217B,2026-06-08T18:40:51.486816,15.69711889,.000084,53.1564,341.9615,86.3498,273.7616,0,U,62058,999,8942,.17319E-2,.21477E-2,0
STARLINK-11454 [DTC],2024-217C,2026-06-08T19:30:18.531072,15.69727927,.0001186,53.1562,342.1966,41.1229,318.9878,0,U,62059,999,8948,.13786E-2,.170018E-2,0
STARLINK-11473 [DTC],2024-217D,2026-06-08T18:12:45.103104,15.69943634,.0000949,53.1571,342.5649,4.7082,355.3944,0,U,62060,999,8947,.22121E-2,.279323E-2,0
STARLINK-11429 [DTC],2024-217E,2026-06-08T20:54:55.374336,15.69716683,.0000535,53.1563,341.8436,114.1098,245.9975,0,U,62061,999,8949,.12974E-2,.159694E-2,0
STARLINK-11470 [DTC],2024-217F,2026-06-08T20:47:51.652320,15.69718127,.0000551,53.1574,341.8061,91.5917,268.5164,0,U,62062,999,8943,.15971E-2,.19765E-2,0
STARLINK-11427 [DTC],2024-217G,2026-06-08T19:37:22.037088,15.69714022,.0001062,53.1564,342.2162,143.2501,216.8590,0,U,62063,999,8948,.13312E-2,.163932E-2,0
STARLINK-11456 [DTC],2024-217H,2026-06-08T18:54:59.062176,15.69727672,.0000889,53.1569,342.0220,109.5885,250.5229,0,U,62064,999,8948,.14673E-2,.181237E-2,0
STARLINK-11474 [DTC],2024-217J,2026-06-08T18:33:47.528064,15.69901304,.0000459,53.1573,341.9265,213.9151,146.1837,0,U,62065,999,8948,.19422E-2,.243682E-2,0
STARLINK-11463 [DTC],2024-217K,2026-06-08T19:09:06.884640,15.69720762,.0001186,53.1583,342.0890,59.0537,301.0598,0,U,62066,999,8948,.17159E-2,.212799E-2,0
STARLINK-11472 [DTC],2024-217L,2026-06-08T18:26:52.448640,15.69968369,.0001,53.1564,342.6269,181.8640,178.2374,0,U,62067,999,8940,.23856E-2,.302436E-2,0
STARLINK-11467 [DTC],2024-217M,2026-06-08T19:02:03.202368,15.69702922,.0001486,53.1569,342.0529,38.2707,321.8416,0,U,62068,999,8948,.13668E-2,.168353E-2,0
STARLINK-11460 [DTC],2024-217N,2026-06-08T19:51:29.716992,15.69716794,.0000848,53.1568,342.2810,71.1037,289.0072,0,U,62069,999,8942,.1424E-2,.175677E-2,0
STARLINK-32604,2024-217P,2026-06-09T02:24:54.739584,15.34403616,.0001862,53.1591,128.8153,109.8119,250.3084,0,U,62070,999,8742,.50744E-3,.16809E-3,0
STARLINK-32553,2024-217Q,2026-06-09T02:34:00.350400,15.34396185,.0001628,53.1594,128.8603,87.8672,272.2517,0,U,62071,999,8747,.59164E-3,.19663E-3,0
STARLINK-32603,2024-217R,2026-06-09T04:25:58.461888,15.34403714,.0001309,53.1592,128.6287,89.0074,271.1079,0,U,62072,999,8748,.69447E-3,.23163E-3,0
STARLINK-32444,2024-217S,2026-06-09T02:12:47.818368,15.34416130,.0001391,53.1603,128.7840,78.4488,281.6670,0,U,62073,999,8742,.67066E-3,.22362E-3,0
STARLINK-32619,2024-217T,2026-06-09T02:15:49.230720,15.34406692,.0001739,53.1594,128.7771,131.6547,228.4604,0,U,62074,999,8742,.11045E-2,.37136E-3,0
STARLINK-32580,2024-217U,2026-06-09T03:53:02.601888,15.30210951,.0001334,53.1580,116.4132,88.4176,271.6978,0,U,62075,999,8760,.5649E-3,.16414E-3,0
STARLINK-32617,2024-217V,2026-06-09T03:15:03.399264,15.30202295,.0001643,53.1594,116.2424,104.9272,255.1911,0,U,62076,999,8760,.45636E-3,.13182E-3,0
STARLINK-11384 [DTC],2024-220A,2026-06-09T03:39:04.669632,15.70977038,.0003831,43.0022,212.1447,289.8482,70.1973,0,U,62088,999,8943,.15329E-2,.2023E-2,0
STARLINK-11379 [DTC],2024-220B,2026-06-08T10:44:16.743264,15.70842687,.000113,42.9998,216.3164,272.5587,87.5152,0,U,62089,999,8922,.97837958E-3,.12704E-2,0
STARLINK-11387 [DTC],2024-220C,2026-06-09T03:23:45.719232,15.70840206,.0002096,43.0039,212.0592,281.9577,78.1055,0,U,62090,999,8943,.34743E-4,.4011E-4,0
STARLINK-11389 [DTC],2024-220D,2026-06-09T03:16:08.442048,15.70950548,.0003523,43.0012,212.0150,284.9859,75.0619,0,U,62091,999,8933,.11891E-2,.155769E-2,0
STARLINK-11388 [DTC],2024-220E,2026-06-09T04:40:03.114336,15.70848185,.0001877,43.0000,211.5874,233.8988,126.1706,0,U,62092,999,8934,.10803E-2,.140581E-2,0
STARLINK-11345 [DTC],2024-220F,2026-06-09T04:32:24.582624,15.70900676,.0000774,42.9976,211.5483,268.2507,91.8272,0,U,62093,999,8934,.11588E-2,.151357E-2,0
STARLINK-11381 [DTC],2024-220G,2026-06-09T04:24:45.594720,15.70894153,.0001486,43.0005,211.5036,265.2424,94.8273,0,U,62094,999,8934,.10063E-2,.131027E-2,0
STARLINK-11369 [DTC],2024-220H,2026-06-09T04:17:07.082016,15.70919423,.0000944,42.9983,211.4613,269.0975,90.9784,0,U,62095,999,8944,.15556E-2,.204829E-2,0
STARLINK-11303 [DTC],2024-220J,2026-06-09T04:09:28.346400,15.70893314,.0001845,42.9999,211.4181,263.8263,96.2394,0,U,62096,999,8944,.13582E-2,.178015E-2,0
STARLINK-11367 [DTC],2024-220K,2026-06-09T04:01:49.545120,15.70883493,.0001976,43.0016,211.3741,269.4698,90.5943,0,U,62097,999,8944,.10624E-2,.138423E-2,0
STARLINK-11386 [DTC],2024-220L,2026-06-09T03:54:10.717056,15.70887033,.0001768,42.9984,211.3347,266.1072,93.9593,0,U,62098,999,8934,.10507E-2,.136879E-2,0
