STARLINK-11426 [DTC]    
1 62058U 24217B   26159.77837369  .00214770  00000+0  17319-2 0  9993
2 62058  53.1564 341.9615 0000840  86.3498 273.7616 15.69711889 89426
STARLINK-11454 [DTC]    
1 62059U 24217C   26159.81271448  .00170018  00000+0  13786-2 0  9999
2 62059  53.1562 342.1966 0001186  41.1229 318.9878 15.69727927 89480
STARLINK-11473 [DTC]    
1 62060U 24217D   26159.75885536  .00279323  00000+0  22121-2 0  9995
2 62060  53.1571 342.5649 0000949   4.7082 355.3944 15.69943634 89475
STARLINK-11429 [DTC]    
1 62061U 24217E   26159.87147424  .00159694  00000+0  12974-2 0  9999
2 62061  53.1563 341.8436 0000535 114.1098 245.9975 15.69716683 89499
STARLINK-11470 [DTC]    
1 62062U 24217F   26159.86657005  .00197650  00000+0  15971-2 0  9994
2 62062  53.1574 341.8061 0000551  91.5917 268.5164 15.69718127 89432
STARLINK-11427 [DTC]    
1 62063U 24217G   26159.81761617  .00163932  00000+0  13312-2 0  9998
2 62063  53.1564 342.2162 0001062 143.2501 216.8590 15.69714022 89485
STARLINK-11456 [DTC]    
1 62064U 24217H   26159.78818359  .00181237  00000+0  14673-2 0  9990
2 62064  53.1569 342.0220 0000889 109.5885 250.5229 15.69727672 89489
STARLINK-11474 [DTC]    
1 62065U 24217J   26159.77346676  .00243682  00000+0  19422-2 0  9998
2 62065  53.1573 341.9265 0000459 213.9151 146.1837 15.69901304 89482
STARLINK-11463 [DTC]    
1 62066U 24217K   26159.79799635  .00212799  00000+0  17159-2 0  9998
2 62066  53.1583 342.0890 0001186  59.0537 301.0598 15.69720762 89488
STARLINK-11472 [DTC]    
1 62067U 24217L   26159.76866260  .00302436  00000+0  23856-2 0  9994
2 62067  53.1564 342.6269 0001000 181.8640 178.2374 15.69968369 89403
STARLINK-11467 [DTC]    
1 62068U 24217M   26159.79309262  .00168353  00000+0  13668-2 0  9990
2 62068  53.1569 342.0529 0001486  38.2707 321.8416 15.69702922 89481
STARLINK-11460 [DTC]    
1 62069U 24217N   26159.82742728  .00175677  00000+0  14240-2 0  9997
2 62069  53.1568 342.2810 0000848  71.1037 289.0072 15.69716794 89428
STARLINK-32604          
1 62070U 24217P   26160.10063356  .00016809  00000+0  50744-3 0  9996
2 62070  53.1591 128.8153 0001862 109.8119 250.3084 15.34403616 87421
STARLINK-32553          
1 62071U 24217Q   26160.10694850  .00019663  00000+0  59164-3 0  9992
2 62071  53.1594 128.8603 0001628  87.8672 272.2517 15.34396185 87475
STARLINK-32603          
1 62072U 24217R   26160.18470442  .00023163  00000+0  69447-3 0  9995
2 62072  53.1592 128.6287 0001309  89.0074 271.1079 15.34403714 87485
STARLINK-32444          
1 62073U 24217S   26160.09222012  .00022362  00000+0  67066-3 0  9999
2 62073  53.1603 128.7840 0001391  78.4488 281.6670 15.34416130 87420
STARLINK-32619          
1 62074U 24217T   26160.09431980  .00037136  00000+0  11045-2 0  9996
2 62074  53.1594 128.7771 0001739 131.6547 228.4604 15.34406692 87425
STARLINK-32580          
1 62075U 24217U   26160.16183567  .00016414  00000+0  56490-3 0  9990
2 62075  53.1580 116.4132 0001334  88.4176 271.6978 15.30210951 87605
STARLINK-32617          
1 62076U 24217V   26160.13545601  .00013182  00000+0  45636-3 0  9998
2 62076  53.1594 116.2424 0001643 104.9272 255.1911 15.30202295 87603
STARLINK-11384 [DTC]    
1 62088U 24220A   26160.15213738  .00202300  00000+0  15329-2 0  9997
2 62088  43.0022 212.1447 0003831 289.8482  70.1973 15.70977038 89432
STARLINK-11379 [DTC]    
1 62089U 24220B   26159.44741601  .00127040  00000+0  97838-3 0  9996
2 62089  42.9998 216.3164 0001130 272.5587  87.5152 15.70842687 89229
STARLINK-11387 [DTC]    
1 62090U 24220C   26160.14150138  .00004011  00000+0  34743-4 0  9995
2 62090  43.0039 212.0592 0002096 281.9577  78.1055 15.70840206 89438
STARLINK-11389 [DTC]    
1 62091U 24220D   26160.13620882  .00155769  00000+0  11891-2 0  9997
2 62091  43.0012 212.0150 0003523 284.9859  75.0619 15.70950548 89334
STARLINK-11388 [DTC]    
1 62092U 24220E   26160.19448049  .00140581  00000+0  10803-2 0  9995
2 62092  43.0000 211.5874 0001877 233.8988 126.1706 15.70848185 89344
STARLINK-11345 [DTC]    
1 62093U 24220F   26160.18917341  .00151357  00000+0  11588-2 0  9995
2 62093  42.9976 211.5483 0000774 268.2507  91.8272 15.70900676 89345
STARLINK-11381 [DTC]    
1 62094U 24220G   26160.18386105  .00131027  00000+0  10063-2 0  9993
2 62094  43.0005 211.5036 0001486 265.2424  94.8273 15.70894153 89347
STARLINK-11369 [DTC]    
1 62095U 24220H   26160.17855419  .00204829  00000+0  15556-2 0  9995
2 62095  42.9983 211.4613 0000944 269.0975  90.9784 15.70919423 89445
STARLINK-11303 [DTC]    
1 62096U 24220J   26160.17324475  .00178015  00000+0  13582-2 0  9993
2 62096  42.9999 211.4181 0001845 263.8263  96.2394 15.70893314 89442
STARLINK-11367 [DTC]    
1 62097U 24220K   26160.16793455  .00138423  00000+0  10624-2 0  9994
2 62097  43.0016 211.3741 0001976 269.4698  90.5943 15.70883493 89449
STARLINK-11386 [DTC]    
1 62098U 24220L   26160.16262404  .00136879  00000+0  10507-2 0  9993
2 62098  42.9984 211.3347 0001768 266.1072  93.9593 15.70887033 89344
